SDA_1673                
1 65983U 25230K   25317.09678852  .00000456  00000+0  38928-3 0  9993
2 65983  81.3034  52.0750 0005094  93.9263 266.2477 13.85558145  3902
SDA_1674                
1 65984U 25230L   25317.09998921  .00000480  00000+0  41176-3 0  9992
2 65984  81.3025  52.0734 0004892  85.5607 274.6109 13.85399518  3901
SDA_1675                
1 65985U 25230M   25317.11358963  .00000382  00000+0  32872-3 0  9996
2 65985  81.3002  52.0857 0003192  46.8422 313.3002 13.84727849  3904
SDA_1676                
1 65986U 25230N   25317.11663885  .00000397  00000+0  34313-3 0  9997
2 65986  81.3033  52.0982 0002428  38.2000 321.9329 13.84577836  3902
SDA_1677                
1 65987U 25230P   25317.11489780  .00000452  00000+0  39189-3 0  9996
2 65987  81.3006  52.0890 0002783  43.0539 317.0835 13.84663438  3908
SDA_1678                
1 65988U 25230Q   25317.09768297  .00000454  00000+0  38792-3 0  9998
2 65988  81.3037  52.0781 0004988  91.8840 268.2888 13.85513213  3908
SDA_1679                
1 65989U 25230R   25317.10176153  .00000394  00000+0  33605-3 0  9996
2 65989  81.3036  52.0837 0005099  80.5712 279.6021 13.85312068  3907
SDA_1680                
1 65990U 25230S   25317.10422231  .00000444  00000+0  38079-3 0  9995
2 65990  81.3027  52.0806 0004873  73.6183 286.5510 13.85191098  3907
SDA_1681                
1 65991U 25230T   25317.10260197  .00000464  00000+0  39777-3 0  9995
2 65991  81.3025  52.0767 0004987  78.1266 282.0450 13.85271353  3907
SDA_1682                
1 65992U 25230U   25317.11142057  .00000419  00000+0  36171-3 0  9996
2 65992  81.3052  52.0978 0003432  52.8617 307.2853 13.84835001  3907
SDA_1683                
1 65993U 25230V   25317.10978762  .00000409  00000+0  35221-3 0  9990
2 65993  81.3043  52.0926 0003782  55.3348 304.8165 13.84916228  3908
SDA_1684                
1 65994U 25230W   25317.18497609  .00000351  00000+0  30155-3 0  9992
2 65994  81.3026  52.0247 0003523  42.3391 317.8037 13.84771124  3910
