CCSDS_OMM_VERS = 2.0
CREATION_DATE  = 
ORIGINATOR     = 

OBJECT_NAME    = SDA_1673
OBJECT_ID      = 2025-230K
CENTER_NAME    = EARTH
REF_FRAME      = TEME
TIME_SYSTEM    = UTC
MEAN_ELEMENT_THEORY = SGP/SGP4

EPOCH          = 2025-11-13T02:19:22.528128
MEAN_MOTION    = 13.85558145
ECCENTRICITY   = .0005094
INCLINATION    = 81.3034
RA_OF_ASC_NODE = 52.0750
ARG_OF_PERICENTER = 93.9263
MEAN_ANOMALY   = 266.2477

EPHEMERIS_TYPE = 0
CLASSIFICATION_TYPE = U
NORAD_CAT_ID   = 65983
ELEMENT_SET_NO = 999
REV_AT_EPOCH   = 390
BSTAR          = .38928E-3
MEAN_MOTION_DOT = .456E-5
MEAN_MOTION_DDOT = 0

CCSDS_OMM_VERS = 2.0
CREATION_DATE  = 
ORIGINATOR     = 

OBJECT_NAME    = SDA_1674
OBJECT_ID      = 2025-230L
CENTER_NAME    = EARTH
REF_FRAME      = TEME
TIME_SYSTEM    = UTC
MEAN_ELEMENT_THEORY = SGP/SGP4

EPOCH          = 2025-11-13T02:23:59.067744
MEAN_MOTION    = 13.85399518
ECCENTRICITY   = .0004892
INCLINATION    = 81.3025
RA_OF_ASC_NODE = 52.0734
ARG_OF_PERICENTER = 85.5607
MEAN_ANOMALY   = 274.6109

EPHEMERIS_TYPE = 0
CLASSIFICATION_TYPE = U
NORAD_CAT_ID   = 65984
ELEMENT_SET_NO = 999
REV_AT_EPOCH   = 390
BSTAR          = .41176E-3
MEAN_MOTION_DOT = .48E-5
MEAN_MOTION_DDOT = 0

CCSDS_OMM_VERS = 2.0
CREATION_DATE  = 
ORIGINATOR     = 

OBJECT_NAME    = SDA_1675
OBJECT_ID      = 2025-230M
CENTER_NAME    = EARTH
REF_FRAME      = TEME
TIME_SYSTEM    = UTC
MEAN_ELEMENT_THEORY = SGP/SGP4

EPOCH          = 2025-11-13T02:43:34.144032
MEAN_MOTION    = 13.84727849
ECCENTRICITY   = .0003192
INCLINATION    = 81.3002
RA_OF_ASC_NODE = 52.0857
ARG_OF_PERICENTER = 46.8422
MEAN_ANOMALY   = 313.3002

EPHEMERIS_TYPE = 0
CLASSIFICATION_TYPE = U
NORAD_CAT_ID   = 65985
ELEMENT_SET_NO = 999
REV_AT_EPOCH   = 390
BSTAR          = .32872E-3
MEAN_MOTION_DOT = .382E-5
MEAN_MOTION_DDOT = 0

CCSDS_OMM_VERS = 2.0
CREATION_DATE  = 
ORIGINATOR     = 

OBJECT_NAME    = SDA_1676
OBJECT_ID      = 2025-230N
CENTER_NAME    = EARTH
REF_FRAME      = TEME
TIME_SYSTEM    = UTC
MEAN_ELEMENT_THEORY = SGP/SGP4

EPOCH          = 2025-11-13T02:47:57.596640
MEAN_MOTION    = 13.84577836
ECCENTRICITY   = .0002428
INCLINATION    = 81.3033
RA_OF_ASC_NODE = 52.0982
ARG_OF_PERICENTER = 38.2000
MEAN_ANOMALY   = 321.9329

EPHEMERIS_TYPE = 0
CLASSIFICATION_TYPE = U
NORAD_CAT_ID   = 65986
ELEMENT_SET_NO = 999
REV_AT_EPOCH   = 390
BSTAR          = .34313E-3
MEAN_MOTION_DOT = .397E-5
MEAN_MOTION_DDOT = 0

CCSDS_OMM_VERS = 2.0
CREATION_DATE  = 
ORIGINATOR     = 

OBJECT_NAME    = SDA_1677
OBJECT_ID      = 2025-230P
CENTER_NAME    = EARTH
REF_FRAME      = TEME
TIME_SYSTEM    = UTC
MEAN_ELEMENT_THEORY = SGP/SGP4

EPOCH          = 2025-11-13T02:45:27.169920
MEAN_MOTION    = 13.84663438
ECCENTRICITY   = .0002783
INCLINATION    = 81.3006
RA_OF_ASC_NODE = 52.0890
ARG_OF_PERICENTER = 43.0539
MEAN_ANOMALY   = 317.0835

EPHEMERIS_TYPE = 0
CLASSIFICATION_TYPE = U
NORAD_CAT_ID   = 65987
ELEMENT_SET_NO = 999
REV_AT_EPOCH   = 390
BSTAR          = .39189E-3
MEAN_MOTION_DOT = .452E-5
MEAN_MOTION_DDOT = 0

CCSDS_OMM_VERS = 2.0
CREATION_DATE  = 
ORIGINATOR     = 

OBJECT_NAME    = SDA_1678
OBJECT_ID      = 2025-230Q
CENTER_NAME    = EARTH
REF_FRAME      = TEME
TIME_SYSTEM    = UTC
MEAN_ELEMENT_THEORY = SGP/SGP4

EPOCH          = 2025-11-13T02:20:39.808608
MEAN_MOTION    = 13.85513213
ECCENTRICITY   = .0004988
INCLINATION    = 81.3037
RA_OF_ASC_NODE = 52.0781
ARG_OF_PERICENTER = 91.8840
MEAN_ANOMALY   = 268.2888

EPHEMERIS_TYPE = 0
CLASSIFICATION_TYPE = U
NORAD_CAT_ID   = 65988
ELEMENT_SET_NO = 999
REV_AT_EPOCH   = 390
BSTAR          = .38792E-3
MEAN_MOTION_DOT = .454E-5
MEAN_MOTION_DDOT = 0

CCSDS_OMM_VERS = 2.0
CREATION_DATE  = 
ORIGINATOR     = 

OBJECT_NAME    = SDA_1679
OBJECT_ID      = 2025-230R
CENTER_NAME    = EARTH
REF_FRAME      = TEME
TIME_SYSTEM    = UTC
MEAN_ELEMENT_THEORY = SGP/SGP4

EPOCH          = 2025-11-13T02:26:32.196192
MEAN_MOTION    = 13.85312068
ECCENTRICITY   = .0005099
INCLINATION    = 81.3036
RA_OF_ASC_NODE = 52.0837
ARG_OF_PERICENTER = 80.5712
MEAN_ANOMALY   = 279.6021

EPHEMERIS_TYPE = 0
CLASSIFICATION_TYPE = U
NORAD_CAT_ID   = 65989
ELEMENT_SET_NO = 999
REV_AT_EPOCH   = 390
BSTAR          = .33605E-3
MEAN_MOTION_DOT = .394E-5
MEAN_MOTION_DDOT = 0

CCSDS_OMM_VERS = 2.0
CREATION_DATE  = 
ORIGINATOR     = 

OBJECT_NAME    = SDA_1680
OBJECT_ID      = 2025-230S
CENTER_NAME    = EARTH
REF_FRAME      = TEME
TIME_SYSTEM    = UTC
MEAN_ELEMENT_THEORY = SGP/SGP4

EPOCH          = 2025-11-13T02:30:04.807584
MEAN_MOTION    = 13.85191098
ECCENTRICITY   = .0004873
INCLINATION    = 81.3027
RA_OF_ASC_NODE = 52.0806
ARG_OF_PERICENTER = 73.6183
MEAN_ANOMALY   = 286.5510

EPHEMERIS_TYPE = 0
CLASSIFICATION_TYPE = U
NORAD_CAT_ID   = 65990
ELEMENT_SET_NO = 999
REV_AT_EPOCH   = 390
BSTAR          = .38079E-3
MEAN_MOTION_DOT = .444E-5
MEAN_MOTION_DDOT = 0

CCSDS_OMM_VERS = 2.0
CREATION_DATE  = 
ORIGINATOR     = 

OBJECT_NAME    = SDA_1681
OBJECT_ID      = 2025-230T
CENTER_NAME    = EARTH
REF_FRAME      = TEME
TIME_SYSTEM    = UTC
MEAN_ELEMENT_THEORY = SGP/SGP4

EPOCH          = 2025-11-13T02:27:44.810208
MEAN_MOTION    = 13.85271353
ECCENTRICITY   = .0004987
INCLINATION    = 81.3025
RA_OF_ASC_NODE = 52.0767
ARG_OF_PERICENTER = 78.1266
MEAN_ANOMALY   = 282.0450

EPHEMERIS_TYPE = 0
CLASSIFICATION_TYPE = U
NORAD_CAT_ID   = 65991
ELEMENT_SET_NO = 999
REV_AT_EPOCH   = 390
BSTAR          = .39777E-3
MEAN_MOTION_DOT = .464E-5
MEAN_MOTION_DDOT = 0

CCSDS_OMM_VERS = 2.0
CREATION_DATE  = 
ORIGINATOR     = 

OBJECT_NAME    = SDA_1682
OBJECT_ID      = 2025-230U
CENTER_NAME    = EARTH
REF_FRAME      = TEME
TIME_SYSTEM    = UTC
MEAN_ELEMENT_THEORY = SGP/SGP4

EPOCH          = 2025-11-13T02:40:26.737248
MEAN_MOTION    = 13.84835001
ECCENTRICITY   = .0003432
INCLINATION    = 81.3052
RA_OF_ASC_NODE = 52.0978
ARG_OF_PERICENTER = 52.8617
MEAN_ANOMALY   = 307.2853

EPHEMERIS_TYPE = 0
CLASSIFICATION_TYPE = U
NORAD_CAT_ID   = 65992
ELEMENT_SET_NO = 999
REV_AT_EPOCH   = 390
BSTAR          = .36171E-3
MEAN_MOTION_DOT = .419E-5
MEAN_MOTION_DDOT = 0

CCSDS_OMM_VERS = 2.0
CREATION_DATE  = 
ORIGINATOR     = 

OBJECT_NAME    = SDA_1683
OBJECT_ID      = 2025-230V
CENTER_NAME    = EARTH
REF_FRAME      = TEME
TIME_SYSTEM    = UTC
MEAN_ELEMENT_THEORY = SGP/SGP4

EPOCH          = 2025-11-13T02:38:05.650368
MEAN_MOTION    = 13.84916228
ECCENTRICITY   = .0003782
INCLINATION    = 81.3043
RA_OF_ASC_NODE = 52.0926
ARG_OF_PERICENTER = 55.3348
MEAN_ANOMALY   = 304.8165

EPHEMERIS_TYPE = 0
CLASSIFICATION_TYPE = U
NORAD_CAT_ID   = 65993
ELEMENT_SET_NO = 999
REV_AT_EPOCH   = 390
BSTAR          = .35221E-3
MEAN_MOTION_DOT = .409E-5
MEAN_MOTION_DDOT = 0

CCSDS_OMM_VERS = 2.0
CREATION_DATE  = 
ORIGINATOR     = 

OBJECT_NAME    = SDA_1684
OBJECT_ID      = 2025-230W
CENTER_NAME    = EARTH
REF_FRAME      = TEME
TIME_SYSTEM    = UTC
MEAN_ELEMENT_THEORY = SGP/SGP4

EPOCH          = 2025-11-13T04:26:21.934176
MEAN_MOTION    = 13.84771124
ECCENTRICITY   = .0003523
INCLINATION    = 81.3026
RA_OF_ASC_NODE = 52.0247
ARG_OF_PERICENTER = 42.3391
MEAN_ANOMALY   = 317.8037

EPHEMERIS_TYPE = 0
CLASSIFICATION_TYPE = U
NORAD_CAT_ID   = 65994
ELEMENT_SET_NO = 999
REV_AT_EPOCH   = 391
BSTAR          = .30155E-3
MEAN_MOTION_DOT = .351E-5
MEAN_MOTION_DDOT = 0

